OBJECT_NAME,OBJECT_ID,EPOCH,MEAN_MOTION,ECCENTRICITY,INCLINATION,RA_OF_ASC_NODE,ARG_OF_PERICENTER,MEAN_ANOMALY,EPHEMERIS_TYPE,CLASSIFICATION_TYPE,NORAD_CAT_ID,ELEMENT_SET_NO,REV_AT_EPOCH,BSTAR,MEAN_MOTION_DOT,MEAN_MOTION_DDOT
STARLINK-37775,2026-122V,2026-06-16T14:00:01.000224,15.80861709,.00009428,97.2846,197.0514,71.1092,9.5291,0,U,69348,999,325,.7271634E-3,.141723E-2,0
STARLINK-37777,2026-122W,2026-06-16T14:00:01.000224,15.80786857,.0000833,97.2840,197.0511,66.5490,14.9922,0,U,69349,999,325,-.35597771E-3,-.67709E-3,0
STARLINK-37779,2026-122X,2026-06-16T14:00:01.000224,15.80871190,.00006564,97.2845,197.0542,80.1963,8.1289,0,U,69350,999,325,-.36889158E-3,-.70408E-3,0
STARLINK-37549,2026-122Y,2026-06-16T14:00:01.000224,15.79194507,.00019486,97.2844,197.0458,137.2488,294.8357,0,U,69351,999,325,-.1576634E-1,-.2420399E-1,0
STARLINK-37778,2026-122Z,2026-06-16T14:00:01.000224,15.81168024,.00018027,97.2842,197.0564,76.4198,19.2097,0,U,69352,999,325,-.14527497E-1,-.2439138E-1,0
STARLINK-37651,2026-123A,2026-06-16T14:00:01.000224,15.80905380,.00011307,53.1585,244.8354,88.7200,158.6805,0,U,69353,999,305,-.28455262E-3,-.56578E-3,0
STARLINK-37652,2026-123B,2026-06-16T14:00:01.000224,15.80913723,.00012193,53.1583,244.8491,77.5613,163.3428,0,U,69354,999,305,-.30592391E-3,-.60769E-3,0
STARLINK-37593,2026-123C,2026-06-16T14:00:01.000224,15.80904419,.00012111,53.1581,244.8378,76.3656,169.4973,0,U,69355,999,310,-.27856438E-3,-.55407E-3,0
STARLINK-37597,2026-123D,2026-06-16T14:00:01.000224,15.80901153,.00011439,53.1583,244.8191,81.7319,173.4087,0,U,69356,999,310,-.25172213E-3,-.50158E-3,0
STARLINK-37598,2026-123E,2026-06-16T14:00:01.000224,15.80895512,.00009062,53.1586,244.7940,60.8422,206.2446,0,U,69357,999,310,-.19557327E-3,-.39163E-3,0
STARLINK-37602,2026-123F,2026-06-16T14:00:01.000224,15.75254169,.00012083,53.1592,244.8365,66.0022,180.6973,0,U,69358,999,310,-.22970126E-3,-.35725E-3,0
STARLINK-37600,2026-123G,2026-06-16T14:00:01.000224,15.75232922,.00012333,53.1590,244.7874,80.7609,189.8795,0,U,69359,999,310,-.91078768E-4,-.14573E-3,0
STARLINK-37599,2026-123H,2026-06-16T14:00:01.000224,15.80913755,.00012524,53.1576,244.6726,87.1886,238.9560,0,U,69360,999,305,-.34179794E-3,-.6776E-3,0
STARLINK-37039,2026-123J,2026-06-16T14:00:01.000224,15.80904959,.00013035,53.1585,244.7294,82.6473,215.4496,0,U,69361,999,305,-.22021893E-3,-.44007E-3,0
STARLINK-37040,2026-123K,2026-06-16T14:00:01.000224,15.80942911,.0000945,53.1587,244.5026,58.0354,349.9109,0,U,69362,999,305,-.5234405E-3,-.103114E-2,0
STARLINK-37582,2026-123L,2026-06-16T14:00:01.000224,15.77338473,.00009405,53.1589,244.6844,77.3664,242.8116,0,U,69363,999,305,-.12125725E-1,-.1791722E-1,0
STARLINK-37309,2026-123M,2026-06-16T14:00:01.000224,15.80845845,.00008956,53.1584,244.3826,51.1378,54.8824,0,U,69364,999,319,.15672451E-3,.30303E-3,0
STARLINK-37436,2026-123N,2026-06-16T14:00:01.000224,15.80881618,.00011852,53.1582,244.3459,75.4081,48.2121,0,U,69365,999,319,-.27841624E-3,-.55321E-3,0
STARLINK-37581,2026-123P,2026-06-16T14:00:01.000224,15.80894349,.00015374,53.1587,244.3904,73.5186,28.6673,0,U,69366,999,304,-.14101474E-3,-.28469E-3,0
STARLINK-37683,2026-123Q,2026-06-16T14:00:01.000224,15.81160946,.00014533,53.1588,244.3423,80.4855,44.6717,0,U,69367,999,305,-.47342397E-2,-.858816E-2,0
STARLINK-37687,2026-123R,2026-06-16T14:00:01.000224,15.80852301,.00008307,53.1586,244.2931,63.2647,85.7681,0,U,69368,999,305,.73179376E-4,.13754E-3,0
STARLINK-37631,2026-123S,2026-06-16T14:00:01.000224,15.80866855,.00010583,53.1587,244.3023,79.1839,65.3270,0,U,69369,999,310,.3430977E-5,-.22E-6,0
STARLINK-37673,2026-123T,2026-06-16T14:00:01.000224,15.80893664,.0001331,53.1585,244.2971,74.7913,72.1822,0,U,69370,999,310,-.20769715E-3,-.41535E-3,0
STARLINK-37645,2026-123U,2026-06-16T14:00:01.000224,15.80923340,.00010189,53.1587,244.3188,32.8371,103.3898,0,U,69371,999,310,-.31084862E-3,-.61755E-3,0
STARLINK-37688,2026-123V,2026-06-16T14:00:01.000224,15.80914974,.00013237,53.1584,244.2880,85.0674,65.8605,0,U,69372,999,310,-.30005204E-3,-.59629E-3,0
STARLINK-37685,2026-123W,2026-06-16T14:00:01.000224,15.80916998,.00011495,53.1584,244.2819,70.4470,83.3716,0,U,69373,999,310,-.3415111E-3,-.67713E-3,0
STARLINK-37632,2026-123X,2026-06-16T14:00:01.000224,15.80906634,.00011342,53.1584,244.2731,83.7427,74.2861,0,U,69374,999,305,-.25875355E-3,-.51544E-3,0
STARLINK-37454,2026-123Y,2026-06-16T14:00:01.000224,15.80902999,.00010287,53.1585,244.2599,67.5473,96.7385,0,U,69375,999,319,-.23412523E-3,-.46722E-3,0
STARLINK-37485,2026-123Z,2026-06-16T14:00:01.000224,15.80904026,.0001225,53.1583,244.2512,52.2946,116.1964,0,U,69376,999,319,-.29231366E-3,-.58089E-3,0
STARLINK-37439,2026-123AA,2026-06-16T14:00:01.000224,15.80910644,.00016037,53.1578,244.1667,69.3792,139.6237,0,U,69377,999,305,-.25076457E-3,-.49996E-3,0
