[
  {
    "name": "STARLINK-37775",
    "noradId": "69348",
    "line1": "1 69348U 26122V   26167.58334491  .00141723  00000+0  72716-3 0  9995",
    "line2": "2 69348  97.2846 197.0514 0000942  71.1092   9.5291 15.80861709  3251"
  },
  {
    "name": "STARLINK-37777",
    "noradId": "69349",
    "line1": "1 69349U 26122W   26167.58334491 -.00067709  00000+0 -35598-3 0  9996",
    "line2": "2 69349  97.2840 197.0511 0000833  66.5490  14.9922 15.80786857  3253"
  },
  {
    "name": "STARLINK-37779",
    "noradId": "69350",
    "line1": "1 69350U 26122X   26167.58334491 -.00070408  00000+0 -36889-3 0  9992",
    "line2": "2 69350  97.2845 197.0542 0000656  80.1963   8.1289 15.80871190  3250"
  },
  {
    "name": "STARLINK-37549",
    "noradId": "69351",
    "line1": "1 69351U 26122Y   26167.58334491 -.02420399  00000+0 -15766-1 0  9992",
    "line2": "2 69351  97.2844 197.0458 0001948 137.2488 294.8357 15.79194507  3255"
  },
  {
    "name": "STARLINK-37778",
    "noradId": "69352",
    "line1": "1 69352U 26122Z   26167.58334491 -.02439138  00000+0 -14527-1 0  9998",
    "line2": "2 69352  97.2842 197.0564 0001802  76.4198  19.2097 15.81168024  3251"
  },
  {
    "name": "STARLINK-37651",
    "noradId": "69353",
    "line1": "1 69353U 26123A   26167.58334491 -.00056578  00000+0 -28455-3 0  9998",
    "line2": "2 69353  53.1585 244.8354 0001130  88.7200 158.6805 15.80905380  3055"
  },
  {
    "name": "STARLINK-37652",
    "noradId": "69354",
    "line1": "1 69354U 26123B   26167.58334491 -.00060769  00000+0 -30592-3 0  9991",
    "line2": "2 69354  53.1583 244.8491 0001219  77.5613 163.3428 15.80913723  3052"
  },
  {
    "name": "STARLINK-37593",
    "noradId": "69355",
    "line1": "1 69355U 26123C   26167.58334491 -.00055407  00000+0 -27856-3 0  9994",
    "line2": "2 69355  53.1581 244.8378 0001211  76.3656 169.4973 15.80904419  3101"
  },
  {
    "name": "STARLINK-37597",
    "noradId": "69356",
    "line1": "1 69356U 26123D   26167.58334491 -.00050158  00000+0 -25172-3 0  9992",
    "line2": "2 69356  53.1583 244.8191 0001143  81.7319 173.4087 15.80901153  3100"
  },
  {
    "name": "STARLINK-37598",
    "noradId": "69357",
    "line1": "1 69357U 26123E   26167.58334491 -.00039163  00000+0 -19557-3 0  9996",
    "line2": "2 69357  53.1586 244.7940 0000906  60.8422 206.2446 15.80895512  3109"
  },
  {
    "name": "STARLINK-37602",
    "noradId": "69358",
    "line1": "1 69358U 26123F   26167.58334491 -.00035725  00000+0 -22970-3 0  9990",
    "line2": "2 69358  53.1592 244.8365 0001208  66.0022 180.6973 15.75254169  3100"
  },
  {
    "name": "STARLINK-37600",
    "noradId": "69359",
    "line1": "1 69359U 26123G   26167.58334491 -.00014573  00000+0 -91079-4 0  9996",
    "line2": "2 69359  53.1590 244.7874 0001233  80.7609 189.8795 15.75232922  3101"
  },
  {
    "name": "STARLINK-37599",
    "noradId": "69360",
    "line1": "1 69360U 26123H   26167.58334491 -.00067760  00000+0 -34180-3 0  9993",
    "line2": "2 69360  53.1576 244.6726 0001252  87.1886 238.9560 15.80913755  3057"
  },
  {
    "name": "STARLINK-37039",
    "noradId": "69361",
    "line1": "1 69361U 26123J   26167.58334491 -.00044007  00000+0 -22022-3 0  9995",
    "line2": "2 69361  53.1585 244.7294 0001303  82.6473 215.4496 15.80904959  3052"
  },
  {
    "name": "STARLINK-37040",
    "noradId": "69362",
    "line1": "1 69362U 26123K   26167.58334491 -.00103114  00000+0 -52344-3 0  9991",
    "line2": "2 69362  53.1587 244.5026 0000945  58.0354 349.9109 15.80942911  3056"
  },
  {
    "name": "STARLINK-37582",
    "noradId": "69363",
    "line1": "1 69363U 26123L   26167.58334491 -.01791722  00000+0 -12126-1 0  9993",
    "line2": "2 69363  53.1589 244.6844 0000940  77.3664 242.8116 15.77338473  3058"
  },
  {
    "name": "STARLINK-37309",
    "noradId": "69364",
    "line1": "1 69364U 26123M   26167.58334491  .00030303  00000+0  15672-3 0  9993",
    "line2": "2 69364  53.1584 244.3826 0000895  51.1378  54.8824 15.80845845  3194"
  },
  {
    "name": "STARLINK-37436",
    "noradId": "69365",
    "line1": "1 69365U 26123N   26167.58334491 -.00055321  00000+0 -27842-3 0  9995",
    "line2": "2 69365  53.1582 244.3459 0001185  75.4081  48.2121 15.80881618  3193"
  },
  {
    "name": "STARLINK-37581",
    "noradId": "69366",
    "line1": "1 69366U 26123P   26167.58334491 -.00028469  00000+0 -14101-3 0  9993",
    "line2": "2 69366  53.1587 244.3904 0001537  73.5186  28.6673 15.80894349  3043"
  },
  {
    "name": "STARLINK-37683",
    "noradId": "69367",
    "line1": "1 69367U 26123Q   26167.58334491 -.00858816  00000+0 -47342-2 0  9993",
    "line2": "2 69367  53.1588 244.3423 0001453  80.4855  44.6717 15.81160946  3056"
  },
  {
    "name": "STARLINK-37687",
    "noradId": "69368",
    "line1": "1 69368U 26123R   26167.58334491  .00013754  00000+0  73179-4 0  9995",
    "line2": "2 69368  53.1586 244.2931 0000830  63.2647  85.7681 15.80852301  3052"
  },
  {
    "name": "STARLINK-37631",
    "noradId": "69369",
    "line1": "1 69369U 26123S   26167.58334491 -.00000022  00000+0  34310-5 0  9996",
    "line2": "2 69369  53.1587 244.3023 0001058  79.1839  65.3270 15.80866855  3102"
  },
  {
    "name": "STARLINK-37673",
    "noradId": "69370",
    "line1": "1 69370U 26123T   26167.58334491 -.00041535  00000+0 -20770-3 0  9996",
    "line2": "2 69370  53.1585 244.2971 0001331  74.7913  72.1822 15.80893664  3108"
  },
  {
    "name": "STARLINK-37645",
    "noradId": "69371",
    "line1": "1 69371U 26123U   26167.58334491 -.00061755  00000+0 -31085-3 0  9994",
    "line2": "2 69371  53.1587 244.3188 0001018  32.8371 103.3898 15.80923340  3102"
  },
  {
    "name": "STARLINK-37688",
    "noradId": "69372",
    "line1": "1 69372U 26123V   26167.58334491 -.00059629  00000+0 -30005-3 0  9993",
    "line2": "2 69372  53.1584 244.2880 0001323  85.0674  65.8605 15.80914974  3104"
  },
  {
    "name": "STARLINK-37685",
    "noradId": "69373",
    "line1": "1 69373U 26123W   26167.58334491 -.00067713  00000+0 -34151-3 0  9993",
    "line2": "2 69373  53.1584 244.2819 0001149  70.4470  83.3716 15.80916998  3101"
  },
  {
    "name": "STARLINK-37632",
    "noradId": "69374",
    "line1": "1 69374U 26123X   26167.58334491 -.00051544  00000+0 -25875-3 0  9992",
    "line2": "2 69374  53.1584 244.2731 0001134  83.7427  74.2861 15.80906634  3058"
  },
  {
    "name": "STARLINK-37454",
    "noradId": "69375",
    "line1": "1 69375U 26123Y   26167.58334491 -.00046722  00000+0 -23413-3 0  9991",
    "line2": "2 69375  53.1585 244.2599 0001028  67.5473  96.7385 15.80902999  3190"
  },
  {
    "name": "STARLINK-37485",
    "noradId": "69376",
    "line1": "1 69376U 26123Z   26167.58334491 -.00058089  00000+0 -29231-3 0  9995",
    "line2": "2 69376  53.1583 244.2512 0001225  52.2946 116.1964 15.80904026  3192"
  },
  {
    "name": "STARLINK-37439",
    "noradId": "69377",
    "line1": "1 69377U 26123AA  26167.58334491 -.00049996  00000+0 -25076-3 0  9996",
    "line2": "2 69377  53.1578 244.1667 0001603  69.3792 139.6237 15.80910644  3056"
  }
]